     3.02           N: GNSS NAV DATA    G: GPS              RINEX VERSION / TYPE
Spider v7.4.1.8151  SMO                 20200603 030439 UTC PGM / RUN BY / DATE
GPSA   6.5193D-09  2.2352D-08 -5.9605D-08 -1.1921D-07       IONOSPHERIC CORR
GPSB   8.6016D+04  9.8304D+04 -6.5536D+04 -5.2429D+05       IONOSPHERIC CORR
GPUT -2.7939677238D-09-7.993605777D-15 503808 2108          TIME SYSTEM CORR
    18    18  1929     7                                    LEAP SECONDS
                                                            END OF HEADER
G16 2020 06 03 01 59 44-1.657754182816D-04-4.547473508865D-12 0.000000000000D+00
     1.700000000000D+01 5.643750000000D+01 4.418041044119D-09 1.794312620643D+00
     2.784654498100D-06 1.148404984269D-02 2.158805727959D-06 5.153766716003D+03
     2.663840000000D+05-1.825392246246D-07 9.359614126983D-01 5.774199962616D-08
     9.784147335981D-01 3.503437500000D+02 6.339641457571D-01-8.371777049376D-09
     8.571785642397D-11 1.000000000000D+00 2.108000000000D+03 0.000000000000D+00
     2.000000000000D+00 0.000000000000D+00-1.071020960808D-08 1.700000000000D+01
     2.591100000000D+05                   
G17 2020 06 02 12 00 00 2.744807861745D-04 6.025402399246D-12 0.000000000000D+00
     6.300000000000D+01-9.106250000000D+01 3.992666197661D-09-2.068474936512D-01
    -4.729256033897D-06 1.320768194273D-02 9.141862392426D-06 5.153711618423D+03
     2.160000000000D+05-1.341104507446D-07 1.952366273835D+00 8.568167686462D-08
     9.837874553135D-01 2.178437500000D+02-1.642635410427D+00-8.167482690169D-09
    -4.685909438251D-10 1.000000000000D+00 2.108000000000D+03 0.000000000000D+00
     2.000000000000D+00 0.000000000000D+00-1.071020960808D-08 6.300000000000D+01
     2.087400000000D+05                   
G18 2020 06 02 20 00 00 2.087643370032D-04 1.125499693444D-11 0.000000000000D+00
     8.500000000000D+01 1.031250000000D+00 4.439827616665D-09 2.504762607428D+00
     1.490116119385D-07 5.389797734097D-04 1.122988760471D-05 5.153727621078D+03
     2.448000000000D+05 5.587935447693D-09 2.966353084993D+00 5.774199962616D-08
     9.642030154972D-01 1.664687500000D+02 2.580324754666D+00-7.947473790182D-09
     3.693010897088D-10 1.000000000000D+00 2.108000000000D+03 0.000000000000D+00
     2.000000000000D+00 0.000000000000D+00-7.916241884232D-09 8.500000000000D+01
     2.375400000000D+05                   
G19 2020 06 02 12 00 00-1.505985856056D-04 5.115907697473D-12 0.000000000000D+00
     4.100000000000D+01-1.048750000000D+02 3.931592384987D-09 2.444488766038D+00
    -5.394220352173D-06 9.458373766392D-03 9.039416909218D-06 5.153694215775D+03
     2.160000000000D+05 1.508742570877D-07 1.998009129191D+00-6.705522537231D-08
     9.820070240314D-01 2.117187500000D+02 1.627771301083D+00-7.770680987562D-09
    -5.582375117719D-10 1.000000000000D+00 2.108000000000D+03 0.000000000000D+00
     2.000000000000D+00 0.000000000000D+00-1.536682248116D-08 4.100000000000D+01
     2.087400000000D+05                   
G20 2020 06 02 22 00 00 5.275877192616D-04-1.136868377216D-13 0.000000000000D+00
     9.200000000000D+01 2.734375000000D+01 5.626305643602D-09 2.445093091644D+00
     1.540407538414D-06 5.157083738595D-03 5.282461643219D-06 5.153645284653D+03
     2.520000000000D+05 6.519258022308D-08-2.428105261199D+00 2.142041921616D-07
     9.340339025583D-01 2.639375000000D+02 2.664579815679D+00-8.666432016469D-09
     2.935836573847D-10 1.000000000000D+00 2.108000000000D+03 0.000000000000D+00
     2.000000000000D+00 0.000000000000D+00-8.847564458847D-09 9.200000000000D+01
     2.447400000000D+05                   
G21 2020 06 03 02 00 00 6.732065230608D-06 4.774847184308D-12 0.000000000000D+00
     1.800000000000D+01-3.615625000000D+01 4.298393196933D-09 3.001622206847D+00
    -1.940876245499D-06 2.388416894246D-02 1.266971230507D-05 5.155147071838D+03
     2.664000000000D+05 4.768371582031D-07 2.874821759111D+00 1.750886440277D-07
     9.535463580275D-01 1.220937500000D+02-1.324406207200D+00-7.547099833971D-09
     3.978737062038D-10 1.000000000000D+00 2.108000000000D+03 0.000000000000D+00
     2.000000000000D+00 0.000000000000D+00-1.024454832077D-08 1.800000000000D+01
     2.591400000000D+05                   
G22 2020 06 03 02 00 00-7.798159494996D-04 1.705302565824D-12 0.000000000000D+00
     2.800000000000D+01 2.409375000000D+01 5.855958384871D-09 5.737303283425D-02
     1.292675733566D-06 7.067389902659D-03 5.356967449188D-06 5.153811767578D+03
     2.664000000000D+05-3.725290298462D-08-2.380805114226D+00-3.725290298462D-09
     9.306955088722D-01 2.635312500000D+02-1.142196565414D+00-8.874655677005D-09
     4.343038151333D-10 1.000000000000D+00 2.108000000000D+03 0.000000000000D+00
     2.000000000000D+00 0.000000000000D+00-1.816079020500D-08 2.800000000000D+01
     2.591400000000D+05                   
G23 2020 03 09 15 59 44-1.309025101364D-04 2.728484105319D-12 0.000000000000D+00
     2.000000000000D+00-4.625000000000D+00 4.540546161280D-09-2.512165419099D+00
    -6.332993507385D-07 1.356135704555D-02 1.449510455132D-05 5.153662734985D+03
     1.439840000000D+05 1.508742570877D-07 2.338262251037D-01-9.126961231232D-08
     9.440028583310D-01 8.687500000000D+01-2.188237082024D+00-7.814254132654D-09
     4.710910550543D-10 1.000000000000D+00 2.096000000000D+03 0.000000000000D+00
     2.000000000000D+00 0.000000000000D+00-2.002343535423D-08 2.000000000000D+00
     1.367100000000D+05                   
G24 2020 06 02 20 00 00-1.381197944283D-05-4.547473508865D-13 0.000000000000D+00
     3.400000000000D+01 8.103125000000D+01 4.674837406071D-09 2.162428453893D+00
     4.215165972710D-06 9.682319359854D-03 1.122243702412D-05 5.153661516190D+03
     2.448000000000D+05-2.067536115646D-07-2.608752131969D-01-1.154839992523D-07
     9.367929426491D-01 1.491250000000D+02 6.665118786436D-01-8.124624528705D-09
     1.107188993266D-10 1.000000000000D+00 2.108000000000D+03 0.000000000000D+00
     2.800000000000D+00 0.000000000000D+00 2.793967723846D-09 3.400000000000D+01
     2.375400000000D+05                   
G25 2020 06 02 21 59 44 9.427778422832D-06 3.410605131648D-12 0.000000000000D+00
     1.800000000000D+01 6.143750000000D+01 4.721982360678D-09 1.351352934394D+00
     3.021210432053D-06 9.145510033704D-03 2.216547727585D-06 5.153783857346D+03
     2.519840000000D+05-1.452863216400D-07 8.481800608012D-01 1.024454832077D-07
     9.655789733371D-01 3.372187500000D+02 9.379125431135D-01-8.583929123063D-09
     2.092944290100D-10 1.000000000000D+00 2.108000000000D+03 0.000000000000D+00
     2.000000000000D+00 0.000000000000D+00 5.587935447693D-09 1.800000000000D+01
     2.447100000000D+05                   
G26 2020 06 03 02 00 00 2.182540483773D-04 7.048583938740D-12 0.000000000000D+00
     7.100000000000D+01 8.078125000000D+01 5.050924567485D-09 2.788791882959D+00
     4.164874553680D-06 4.746917751618D-03 2.298504114151D-06 5.153623739243D+03
     2.664000000000D+05-3.911554813385D-08 8.126374288565D-01 3.166496753693D-08
     9.466905797026D-01 3.282500000000D+02 2.270765215057D-01-8.603215917447D-09
     2.267951659807D-10 1.000000000000D+00 2.108000000000D+03 0.000000000000D+00
     2.000000000000D+00 0.000000000000D+00 6.984919309616D-09 7.100000000000D+01
     2.591400000000D+05                   
G27 2020 06 03 02 00 00-3.104754723608D-04-1.000444171950D-11 0.000000000000D+00
     9.300000000000D+01-1.070000000000D+02 4.174459444783D-09 9.199178739291D-01
    -5.658715963364D-06 8.306910516694D-03 5.818903446198D-06 5.153664480209D+03
     2.664000000000D+05-9.872019290924D-08 1.893504214222D+00 5.960464477539D-08
     9.778708001753D-01 2.786875000000D+02 5.685248079231D-01-8.125338624154D-09
    -3.525146841099D-10 1.000000000000D+00 2.108000000000D+03 0.000000000000D+00
     2.000000000000D+00 0.000000000000D+00 1.862645149231D-09 9.300000000000D+01
     2.591400000000D+05                   
G28 2020 06 02 10 00 00 7.122163660824D-04-3.183231456205D-12 0.000000000000D+00
     5.000000000000D+01 1.959375000000D+01 4.751269155889D-09-4.366128044587D-01
     1.117587089539D-06 1.841128547676D-02 2.576038241386D-06 5.153660329819D+03
     2.088000000000D+05-2.365559339523D-07 9.401789938175D-01 2.048909664154D-08
     9.774302438587D-01 3.409687500000D+02-1.405894154278D+00-8.807867324379D-09
    -2.535819991489D-11 1.000000000000D+00 2.108000000000D+03 0.000000000000D+00
     2.800000000000D+00 0.000000000000D+00-1.117587089539D-08 5.000000000000D+01
     2.015400000000D+05                   
G29 2020 06 03 00 00 00-1.189718022943D-04-8.867573342286D-12 0.000000000000D+00
     4.300000000000D+01-1.167812500000D+02 3.963736450174D-09 2.593777878060D-01
    -6.174668669701D-06 1.520349411294D-03 7.158145308495D-06 5.153578147888D+03
     2.592000000000D+05 2.421438694000D-08 1.963794243158D+00-5.960464477539D-08
     9.854429182816D-01 2.519687500000D+02 1.941061173538D+00-7.962117187787D-09
    -2.778687280269D-10 1.000000000000D+00 2.108000000000D+03 0.000000000000D+00
     2.000000000000D+00 0.000000000000D+00-9.778887033463D-09 4.300000000000D+01
     2.519400000000D+05                   
G30 2020 06 03 02 00 00-2.335817553103D-04-7.958078640513D-12 0.000000000000D+00
     5.000000000000D+01 1.001562500000D+02 4.684480803263D-09-1.986477225390D+00
     5.064532160759D-06 4.645334789529D-03 1.093558967113D-05 5.153645809174D+03
     2.664000000000D+05-7.450580596924D-08-1.662695327877D-01-1.862645149231D-09
     9.388725041055D-01 1.578750000000D+02-2.860454538670D+00-8.039620524869D-09
     4.250176946496D-11 1.000000000000D+00 2.108000000000D+03 0.000000000000D+00
     2.000000000000D+00 0.000000000000D+00 3.725290298462D-09 5.000000000000D+01
     2.591400000000D+05                   
